[
  {
    "COMMENT": "GENERATED VIA SPACETRACK.ORG API",
    "ORIGINATOR": "18 SPCS",
    "NORAD_CAT_ID": "46984",
    "OBJECT_NAME": "S6 MICHAEL FREILICH",
    "OBJECT_TYPE": "PAYLOAD",
    "CLASSIFICATION_TYPE": "U",
    "INTLDES": "20086A",
    "EPOCH": "2022-01-30 05:55:00",
    "EPOCH_MICROSECONDS": "318144",
    "MEAN_MOTION": "12.80930762",
    "ECCENTRICITY": "0.0007642",
    "INCLINATION": "66.0414",
    "RA_OF_ASC_NODE": "216.0868",
    "ARG_OF_PERICENTER": "265.3264",
    "MEAN_ANOMALY": "94.6878",
    "EPHEMERIS_TYPE": "0",
    "ELEMENT_SET_NO": "999",
    "REV_AT_EPOCH": "5566",
    "BSTAR": "0",
    "MEAN_MOTION_DOT": "-0.00000061",
    "MEAN_MOTION_DDOT": "0",
    "FILE": "3287677",
    "TLE_LINE0": "0 S6 MICHAEL FREILICH",
    "TLE_LINE1": "1 46984U 20086A   22030.24653146 -.00000061  00000-0  00000-0 0  9993",
    "TLE_LINE2": "2 46984  66.0414 216.0868 0007642 265.3264  94.6878 12.80930762 55664",
    "OBJECT_ID": "2020-086A",
    "OBJECT_NUMBER": "46984",
    "SEMIMAJOR_AXIS": "7715.867",
    "PERIOD": "112.418",
    "APOGEE": "1343.629",
    "PERIGEE": "1331.836",
    "DECAYED": "0"
  },
  {
    "COMMENT": "GENERATED VIA SPACETRACK.ORG API",
    "ORIGINATOR": "18 SPCS",
    "NORAD_CAT_ID": "46984",
    "OBJECT_NAME": "S6 MICHAEL FREILICH",
    "OBJECT_TYPE": "PAYLOAD",
    "CLASSIFICATION_TYPE": "U",
    "INTLDES": "20086A",
    "EPOCH": "2022-01-30 15:17:09",
    "EPOCH_MICROSECONDS": "105216",
    "MEAN_MOTION": "12.80930754",
    "ECCENTRICITY": "0.0007633",
    "INCLINATION": "66.0412",
    "RA_OF_ASC_NODE": "215.2755",
    "ARG_OF_PERICENTER": "265.4018",
    "MEAN_ANOMALY": "94.6125",
    "EPHEMERIS_TYPE": "0",
    "ELEMENT_SET_NO": "999",
    "REV_AT_EPOCH": "5571",
    "BSTAR": "0",
    "MEAN_MOTION_DOT": "-0.00000061",
    "MEAN_MOTION_DDOT": "0",
    "FILE": "3287672",
    "TLE_LINE0": "0 S6 MICHAEL FREILICH",
    "TLE_LINE1": "1 46984U 20086A   22030.63691094 -.00000061  00000-0  00000+0 0  9999",
    "TLE_LINE2": "2 46984  66.0412 215.2755 0007633 265.4018  94.6125 12.80930754 55718",
    "OBJECT_ID": "2020-086A",
    "OBJECT_NUMBER": "46984",
    "SEMIMAJOR_AXIS": "7715.867",
    "PERIOD": "112.418",
    "APOGEE": "1343.622",
    "PERIGEE": "1331.843",
    "DECAYED": "0"
  },
  {
    "COMMENT": "GENERATED VIA SPACETRACK.ORG API",
    "ORIGINATOR": "18 SPCS",
    "NORAD_CAT_ID": "46984",
    "OBJECT_NAME": "S6 MICHAEL FREILICH",
    "OBJECT_TYPE": "PAYLOAD",
    "CLASSIFICATION_TYPE": "U",
    "INTLDES": "20086A",
    "EPOCH": "2022-01-30 15:17:09",
    "EPOCH_MICROSECONDS": "105216",
    "MEAN_MOTION": "12.80930754",
    "ECCENTRICITY": "0.0007633",
    "INCLINATION": "66.0412",
    "RA_OF_ASC_NODE": "215.2755",
    "ARG_OF_PERICENTER": "265.4018",
    "MEAN_ANOMALY": "94.6125",
    "EPHEMERIS_TYPE": "0",
    "ELEMENT_SET_NO": "999",
    "REV_AT_EPOCH": "5571",
    "BSTAR": "0",
    "MEAN_MOTION_DOT": "-0.00000061",
    "MEAN_MOTION_DDOT": "0",
    "FILE": "3287673",
    "TLE_LINE0": "0 S6 MICHAEL FREILICH",
    "TLE_LINE1": "1 46984U 20086A   22030.63691094 -.00000061  00000-0  00000+0 0  9999",
    "TLE_LINE2": "2 46984  66.0412 215.2755 0007633 265.4018  94.6125 12.80930754 55718",
    "OBJECT_ID": "2020-086A",
    "OBJECT_NUMBER": "46984",
    "SEMIMAJOR_AXIS": "7715.867",
    "PERIOD": "112.418",
    "APOGEE": "1343.622",
    "PERIGEE": "1331.843",
    "DECAYED": "0"
  },
  {
    "COMMENT": "GENERATED VIA SPACETRACK.ORG API",
    "ORIGINATOR": "18 SPCS",
    "NORAD_CAT_ID": "46984",
    "OBJECT_NAME": "S6 MICHAEL FREILICH",
    "OBJECT_TYPE": "PAYLOAD",
    "CLASSIFICATION_TYPE": "U",
    "INTLDES": "20086A",
    "EPOCH": "2022-01-30 20:54:26",
    "EPOCH_MICROSECONDS": "376768",
    "MEAN_MOTION": "12.80930748",
    "ECCENTRICITY": "0.0007627",
    "INCLINATION": "66.041",
    "RA_OF_ASC_NODE": "214.7887",
    "ARG_OF_PERICENTER": "265.6579",
    "MEAN_ANOMALY": "94.3565",
    "EPHEMERIS_TYPE": "0",
    "ELEMENT_SET_NO": "999",
    "REV_AT_EPOCH": "5574",
    "BSTAR": "0",
    "MEAN_MOTION_DOT": "-0.00000061",
    "MEAN_MOTION_DDOT": "0",
    "FILE": "3287903",
    "TLE_LINE0": "0 S6 MICHAEL FREILICH",
    "TLE_LINE1": "1 46984U 20086A   22030.87113862 -.00000061  00000-0  00000-0 0  9998",
    "TLE_LINE2": "2 46984  66.0410 214.7887 0007627 265.6579  94.3565 12.80930748 55744",
    "OBJECT_ID": "2020-086A",
    "OBJECT_NUMBER": "46984",
    "SEMIMAJOR_AXIS": "7715.867",
    "PERIOD": "112.418",
    "APOGEE": "1343.617",
    "PERIGEE": "1331.847",
    "DECAYED": "0"
  },
  {
    "COMMENT": "GENERATED VIA SPACETRACK.ORG API",
    "ORIGINATOR": "18 SPCS",
    "NORAD_CAT_ID": "46984",
    "OBJECT_NAME": "S6 MICHAEL FREILICH",
    "OBJECT_TYPE": "PAYLOAD",
    "CLASSIFICATION_TYPE": "U",
    "INTLDES": "20086A",
    "EPOCH": "2022-01-31 11:53:52",
    "EPOCH_MICROSECONDS": "433664",
    "MEAN_MOTION": "12.80930764",
    "ECCENTRICITY": "0.0007637",
    "INCLINATION": "66.041",
    "RA_OF_ASC_NODE": "213.4914",
    "ARG_OF_PERICENTER": "265.329",
    "MEAN_ANOMALY": "94.686",
    "EPHEMERIS_TYPE": "0",
    "ELEMENT_SET_NO": "999",
    "REV_AT_EPOCH": "5582",
    "BSTAR": "0",
    "MEAN_MOTION_DOT": "-0.00000061",
    "MEAN_MOTION_DDOT": "0",
    "FILE": "3288420",
    "TLE_LINE0": "0 S6 MICHAEL FREILICH",
    "TLE_LINE1": "1 46984U 20086A   22031.49574576 -.00000061  00000-0  00000+0 0  9999",
    "TLE_LINE2": "2 46984  66.0410 213.4914 0007637 265.3290  94.6860 12.80930764 55827",
    "OBJECT_ID": "2020-086A",
    "OBJECT_NUMBER": "46984",
    "SEMIMAJOR_AXIS": "7715.867",
    "PERIOD": "112.418",
    "APOGEE": "1343.625",
    "PERIGEE": "1331.839",
    "DECAYED": "0"
  },
  {
    "COMMENT": "GENERATED VIA SPACETRACK.ORG API",
    "ORIGINATOR": "18 SPCS",
    "NORAD_CAT_ID": "46984",
    "OBJECT_NAME": "S6 MICHAEL FREILICH",
    "OBJECT_TYPE": "PAYLOAD",
    "CLASSIFICATION_TYPE": "U",
    "INTLDES": "20086A",
    "EPOCH": "2022-01-31 11:53:52",
    "EPOCH_MICROSECONDS": "433664",
    "MEAN_MOTION": "12.80930764",
    "ECCENTRICITY": "0.0007637",
    "INCLINATION": "66.041",
    "RA_OF_ASC_NODE": "213.4914",
    "ARG_OF_PERICENTER": "265.329",
    "MEAN_ANOMALY": "94.686",
    "EPHEMERIS_TYPE": "0",
    "ELEMENT_SET_NO": "999",
    "REV_AT_EPOCH": "5582",
    "BSTAR": "0",
    "MEAN_MOTION_DOT": "-0.00000061",
    "MEAN_MOTION_DDOT": "0",
    "FILE": "3288431",
    "TLE_LINE0": "0 S6 MICHAEL FREILICH",
    "TLE_LINE1": "1 46984U 20086A   22031.49574576 -.00000061  00000-0  00000+0 0  9999",
    "TLE_LINE2": "2 46984  66.0410 213.4914 0007637 265.3290  94.6860 12.80930764 55827",
    "OBJECT_ID": "2020-086A",
    "OBJECT_NUMBER": "46984",
    "SEMIMAJOR_AXIS": "7715.867",
    "PERIOD": "112.418",
    "APOGEE": "1343.625",
    "PERIGEE": "1331.839",
    "DECAYED": "0"
  },
  {
    "COMMENT": "GENERATED VIA SPACETRACK.ORG API",
    "ORIGINATOR": "18 SPCS",
    "NORAD_CAT_ID": "46984",
    "OBJECT_NAME": "S6 MICHAEL FREILICH",
    "OBJECT_TYPE": "PAYLOAD",
    "CLASSIFICATION_TYPE": "U",
    "INTLDES": "20086A",
    "EPOCH": "2022-01-31 17:31:09",
    "EPOCH_MICROSECONDS": "693120",
    "MEAN_MOTION": "12.8093077",
    "ECCENTRICITY": "0.000763",
    "INCLINATION": "66.041",
    "RA_OF_ASC_NODE": "213.0047",
    "ARG_OF_PERICENTER": "265.4599",
    "MEAN_ANOMALY": "94.5546",
    "EPHEMERIS_TYPE": "0",
    "ELEMENT_SET_NO": "999",
    "REV_AT_EPOCH": "5585",
    "BSTAR": "0",
    "MEAN_MOTION_DOT": "-0.00000061",
    "MEAN_MOTION_DDOT": "0",
    "FILE": "3288814",
    "TLE_LINE0": "0 S6 MICHAEL FREILICH",
    "TLE_LINE1": "1 46984U 20086A   22031.72997330 -.00000061  00000-0  00000-0 0  9993",
    "TLE_LINE2": "2 46984  66.0410 213.0047 0007630 265.4599  94.5546 12.80930770 55856",
    "OBJECT_ID": "2020-086A",
    "OBJECT_NUMBER": "46984",
    "SEMIMAJOR_AXIS": "7715.867",
    "PERIOD": "112.418",
    "APOGEE": "1343.619",
    "PERIGEE": "1331.845",
    "DECAYED": "0"
  },
  {
    "COMMENT": "GENERATED VIA SPACETRACK.ORG API",
    "ORIGINATOR": "18 SPCS",
    "NORAD_CAT_ID": "46984",
    "OBJECT_NAME": "S6 MICHAEL FREILICH",
    "OBJECT_TYPE": "PAYLOAD",
    "CLASSIFICATION_TYPE": "U",
    "INTLDES": "20086A",
    "EPOCH": "2022-02-01 04:45:44",
    "EPOCH_MICROSECONDS": "231904",
    "MEAN_MOTION": "12.80930794",
    "ECCENTRICITY": "0.0007614",
    "INCLINATION": "66.0409",
    "RA_OF_ASC_NODE": "212.0316",
    "ARG_OF_PERICENTER": "265.4238",
    "MEAN_ANOMALY": "94.591",
    "EPHEMERIS_TYPE": "0",
    "ELEMENT_SET_NO": "999",
    "REV_AT_EPOCH": "5591",
    "BSTAR": "0",
    "MEAN_MOTION_DOT": "-0.00000061",
    "MEAN_MOTION_DDOT": "0",
    "FILE": "3289329",
    "TLE_LINE0": "0 S6 MICHAEL FREILICH",
    "TLE_LINE1": "1 46984U 20086A   22032.19842861 -.00000061  00000-0  00000+0 0  9992",
    "TLE_LINE2": "2 46984  66.0409 212.0316 0007614 265.4238  94.5910 12.80930794 55912",
    "OBJECT_ID": "2020-086A",
    "OBJECT_NUMBER": "46984",
    "SEMIMAJOR_AXIS": "7715.867",
    "PERIOD": "112.418",
    "APOGEE": "1343.607",
    "PERIGEE": "1331.857",
    "DECAYED": "0"
  }
]